{
  "type": "FeatureCollection",
  "features": [
    {
      "type": "Feature",
      "properties": {
        "county": "台北市",
        "town": "士林區",
        "village": "東山里",
        "record_date": "2025/05/10",
        "confirmed_count": 1,
        "marker-color": "#FFCC00"
      },
      "geometry": {
        "type": "Point",
        "coordinates": [121.5390172, 25.1134735]
      }
    },
    {
      "type": "Feature",
      "properties": {
        "county": "台北市",
        "town": "萬華區",
        "village": "福星里",
        "record_date": "2025/05/11",
        "confirmed_count": 1,
        "marker-color": "#FFCC00"
      },
      "geometry": {
        "type": "Point",
        "coordinates": [121.5081343, 25.0455485]
      }
    },
    {
      "type": "Feature",
      "properties": {
        "county": "台北市",
        "town": "文山區",
        "village": "政大里",
        "record_date": "2025/05/12",
        "confirmed_count": 1,
        "marker-color": "#FFCC00"
      },
      "geometry": {
        "type": "Point",
        "coordinates": [121.5811104, 24.98608661]
      }
    },
    {
      "type": "Feature",
      "properties": {
        "county": "台北市",
        "town": "信義區",
        "village": "大道里",
        "record_date": "2025/05/14",
        "confirmed_count": 1,
        "marker-color": "#FFCC00"
      },
      "geometry": {
        "type": "Point",
        "coordinates": [121.5820264, 25.04085189]
      }
    },
    {
      "type": "Feature",
      "properties": {
        "county": "台北市",
        "town": "內湖區",
        "village": "湖元里",
        "record_date": "2025/06/01",
        "confirmed_count": 1,
        "marker-color": "#FFCC00"
      },
      "geometry": {
        "type": "Point",
        "coordinates": [121.587511, 25.06795654]
      }
    },
    {
      "type": "Feature",
      "properties": {
        "county": "台北市",
        "town": "內湖區",
        "village": "石潭里",
        "record_date": "2025/06/12",
        "confirmed_count": 1,
        "marker-color": "#FFCC00"
      },
      "geometry": {
        "type": "Point",
        "coordinates": [121.5899452, 25.05921426]
      }
    },
    {
      "type": "Feature",
      "properties": {
        "county": "台北市",
        "town": "中山區",
        "village": "江山里",
        "record_date": "2025/06/18",
        "confirmed_count": 1,
        "marker-color": "#FFCC00"
      },
      "geometry": {
        "type": "Point",
        "coordinates": [121.5373738, 25.05850817]
      }
    },
    {
      "type": "Feature",
      "properties": {
        "county": "台北市",
        "town": "中正區",
        "village": "光復里",
        "record_date": "2025/06/18",
        "confirmed_count": 1,
        "marker-color": "#FFCC00"
      },
      "geometry": {
        "type": "Point",
        "coordinates": [121.5092876, 25.0429783]
      }
    },
    {
      "type": "Feature",
      "properties": {
        "county": "台北市",
        "town": "中正區",
        "village": "黎明里",
        "record_date": "2025/06/25",
        "confirmed_count": 1,
        "marker-color": "#FFCC00"
      },
      "geometry": {
        "type": "Point",
        "coordinates": [121.5139574, 25.04671821]
      }
    },
    {
      "type": "Feature",
      "properties": {
        "county": "台北市",
        "town": "大同區",
        "village": "建明里",
        "record_date": "2025/06/25",
        "confirmed_count": 1,
        "marker-color": "#FFCC00"
      },
      "geometry": {
        "type": "Point",
        "coordinates": [121.5146572, 25.04974169]
      }
    },
    {
      "type": "Feature",
      "properties": {
        "county": "台北市",
        "town": "文山區",
        "village": "木柵里",
        "record_date": "2025/07/09",
        "confirmed_count": 1,
        "marker-color": "#FFCC00"
      },
      "geometry": {
        "type": "Point",
        "coordinates": [121.5690999, 24.98961261]
      }
    },
    {
      "type": "Feature",
      "properties": {
        "county": "台北市",
        "town": "士林區",
        "village": "三玉里",
        "record_date": "2025/07/17",
        "confirmed_count": 1,
        "marker-color": "#FFCC00"
      },
      "geometry": {
        "type": "Point",
        "coordinates": [121.5344314, 25.11069351]
      }
    },
    {
      "type": "Feature",
      "properties": {
        "county": "台北市",
        "town": "大安區",
        "village": "虎嘯里",
        "record_date": "2025/07/27",
        "confirmed_count": 1,
        "marker-color": "#FFCC00"
      },
      "geometry": {
        "type": "Point",
        "coordinates": [121.5472407, 25.02308752]
      }
    },
    {
      "type": "Feature",
      "properties": {
        "county": "台北市",
        "town": "大安區",
        "village": "虎嘯里",
        "record_date": "2025/07/28",
        "confirmed_count": 1,
        "marker-color": "#FFCC00"
      },
      "geometry": {
        "type": "Point",
        "coordinates": [121.5472407, 25.02308752]
      }
    },
    {
      "type": "Feature",
      "properties": {
        "county": "台北市",
        "town": "士林區",
        "village": "公館里",
        "record_date": "2025/08/02",
        "confirmed_count": 1,
        "marker-color": "#FFCC00"
      },
      "geometry": {
        "type": "Point",
        "coordinates": [121.5592653, 25.12664472]
      }
    },
    {
      "type": "Feature",
      "properties": {
        "county": "台北市",
        "town": "內湖區",
        "village": "紫陽里",
        "record_date": "2025/08/22",
        "confirmed_count": 1,
        "marker-color": "#FFCC00"
      },
      "geometry": {
        "type": "Point",
        "coordinates": [121.5857368, 25.07573214]
      }
    },
    {
      "type": "Feature",
      "properties": {
        "county": "台北市",
        "town": "中山區",
        "village": "中山里",
        "record_date": "2025/08/23",
        "confirmed_count": 1,
        "marker-color": "#FFCC00"
      },
      "geometry": {
        "type": "Point",
        "coordinates": [121.5259706, 25.05680982]
      }
    },
    {
      "type": "Feature",
      "properties": {
        "county": "台北市",
        "town": "內湖區",
        "village": "紫陽里",
        "record_date": "2025/08/24",
        "confirmed_count": 1,
        "marker-color": "#FFCC00"
      },
      "geometry": {
        "type": "Point",
        "coordinates": [121.5857368, 25.07573214]
      }
    },
    {
      "type": "Feature",
      "properties": {
        "county": "台北市",
        "town": "中正區",
        "village": "黎明里",
        "record_date": "2025/09/18",
        "confirmed_count": 1,
        "marker-color": "#FFCC00"
      },
      "geometry": {
        "type": "Point",
        "coordinates": [121.5155866, 25.04613003]
      }
    },
    {
      "type": "Feature",
      "properties": {
        "county": "台北市",
        "town": "士林區",
        "village": "天和里",
        "record_date": "2025/09/26",
        "confirmed_count": 1,
        "marker-color": "#FFCC00"
      },
      "geometry": {
        "type": "Point",
        "coordinates": [121.5345581, 25.12282724]
      }
    },
    {
      "type": "Feature",
      "properties": {
        "county": "台北市",
        "town": "北投區",
        "village": "石牌里",
        "record_date": "2025/10/05",
        "confirmed_count": 1,
        "marker-color": "#FFCC00"
      },
      "geometry": {
        "type": "Point",
        "coordinates": [121.5152727, 25.11051116]
      }
    },
    {
      "type": "Feature",
      "properties": {
        "county": "台北市",
        "town": "中正區",
        "village": "光復里",
        "record_date": "2025/10/09",
        "confirmed_count": 1,
        "marker-color": "#FFCC00"
      },
      "geometry": {
        "type": "Point",
        "coordinates": [121.5127855, 25.04671764]
      }
    },
    {
      "type": "Feature",
      "properties": {
        "county": "台北市",
        "town": "大安區",
        "village": "昌隆里",
        "record_date": "2025/10/12",
        "confirmed_count": 1,
        "marker-color": "#FFCC00"
      },
      "geometry": {
        "type": "Point",
        "coordinates": [121.5390688, 25.04344186]
      }
    },
    {
      "type": "Feature",
      "properties": {
        "county": "台北市",
        "town": "中正區",
        "village": "南福里",
        "record_date": "2025/10/13",
        "confirmed_count": 1,
        "marker-color": "#FFCC00"
      },
      "geometry": {
        "type": "Point",
        "coordinates": [121.5197309, 25.03040152]
      }
    },
    {
      "type": "Feature",
      "properties": {
        "county": "台北市",
        "town": "大安區",
        "village": "法治里",
        "record_date": "2025/10/15",
        "confirmed_count": 1,
        "marker-color": "#FFCC00"
      },
      "geometry": {
        "type": "Point",
        "coordinates": [121.5524245, 25.02539167]
      }
    },
    {
      "type": "Feature",
      "properties": {
        "county": "台北市",
        "town": "松山區",
        "village": "民有里",
        "record_date": "2025/10/29",
        "confirmed_count": 1,
        "marker-color": "#FFCC00"
      },
      "geometry": {
        "type": "Point",
        "coordinates": [121.5472352, 25.06114517]
      }
    },
    {
      "type": "Feature",
      "properties": {
        "county": "台北市",
        "town": "萬華區",
        "village": "西門里",
        "record_date": "2025/10/31",
        "confirmed_count": 1,
        "marker-color": "#FFCC00"
      },
      "geometry": {
        "type": "Point",
        "coordinates": [121.508046, 25.04276706]
      }
    },
    {
      "type": "Feature",
      "properties": {
        "county": "台北市",
        "town": "大安區",
        "village": "敦煌里",
        "record_date": "2025/12/07",
        "confirmed_count": 1,
        "marker-color": "#FFCC00"
      },
      "geometry": {
        "type": "Point",
        "coordinates": [121.5530765, 25.03740819]
      }
    },
    {
      "type": "Feature",
      "properties": {
        "county": "台北市",
        "town": "信義區",
        "village": "敦厚里",
        "record_date": "2025/12/10",
        "confirmed_count": 1,
        "marker-color": "#FFCC00"
      },
      "geometry": {
        "type": "Point",
        "coordinates": [121.5679999, 25.04539602]
      }
    },
    {
      "type": "Feature",
      "properties": {
        "county": "台北市",
        "town": "萬華區",
        "village": "福星里",
        "record_date": "2025/12/19",
        "confirmed_count": 1,
        "marker-color": "#FFCC00"
      },
      "geometry": {
        "type": "Point",
        "coordinates": [121.5081343, 25.0455485]
      }
    },
    {
      "type": "Feature",
      "properties": {
        "county": "台北市",
        "town": "信義區",
        "village": "景新里",
        "record_date": "2025/12/26",
        "confirmed_count": 1,
        "marker-color": "#FFCC00"
      },
      "geometry": {
        "type": "Point",
        "coordinates": [121.5624124, 25.02897582]
      }
    },
    {
      "type": "Feature",
      "properties": {
        "county": "台北市",
        "town": "士林區",
        "village": "義信里",
        "record_date": "2025/12/30",
        "confirmed_count": 1,
        "marker-color": "#FFCC00"
      },
      "geometry": {
        "type": "Point",
        "coordinates": [121.5227767, 25.08923593]
      }
    },
    {
      "type": "Feature",
      "properties": {
        "county": "台北市",
        "town": "中山區",
        "village": "晴光里",
        "record_date": "2026/01/06",
        "confirmed_count": 1,
        "marker-color": "#FFCC00"
      },
      "geometry": {
        "type": "Point",
        "coordinates": [121.526332, 25.06573498]
      }
    },
    {
      "type": "Feature",
      "properties": {
        "county": "台北市",
        "town": "中正區",
        "village": "黎明里",
        "record_date": "2026/01/24",
        "confirmed_count": 1,
        "marker-color": "#FFCC00"
      },
      "geometry": {
        "type": "Point",
        "coordinates": [121.5155866, 25.04613003]
      }
    },
    {
      "type": "Feature",
      "properties": {
        "county": "台北市",
        "town": "中正區",
        "village": "黎明里",
        "record_date": "2026/01/29",
        "confirmed_count": 1,
        "marker-color": "#FFCC00"
      },
      "geometry": {
        "type": "Point",
        "coordinates": [121.5167851, 25.04597793]
      }
    },
    {
      "type": "Feature",
      "properties": {
        "county": "台北市",
        "town": "士林區",
        "village": "德行里",
        "record_date": "2026/03/04",
        "confirmed_count": 1,
        "marker-color": "#FFCC00"
      },
      "geometry": {
        "type": "Point",
        "coordinates": [121.523123, 25.10491358]
      }
    },
    {
      "type": "Feature",
      "properties": {
        "county": "台北市",
        "town": "萬華區",
        "village": "新起里",
        "record_date": "2026/03/12",
        "confirmed_count": 1,
        "marker-color": "#FFCC00"
      },
      "geometry": {
        "type": "Point",
        "coordinates": [121.5069007, 25.04000729]
      }
    },
    {
      "type": "Feature",
      "properties": {
        "county": "台北市",
        "town": "萬華區",
        "village": "萬壽里",
        "record_date": "2026/04/04",
        "confirmed_count": 1,
        "marker-color": "#FFCC00"
      },
      "geometry": {
        "type": "Point",
        "coordinates": [121.5063691, 25.04534075]
      }
    },
    {
      "type": "Feature",
      "properties": {
        "county": "台北市",
        "town": "信義區",
        "village": "景勤里",
        "record_date": "2026/04/10",
        "confirmed_count": 1,
        "marker-color": "#FFCC00"
      },
      "geometry": {
        "type": "Point",
        "coordinates": [121.5597606, 25.02806292]
      }
    },
    {
      "type": "Feature",
      "properties": {
        "county": "台北市",
        "town": "大同區",
        "village": "重慶里",
        "record_date": "2026/04/10",
        "confirmed_count": 1,
        "marker-color": "#FFCC00"
      },
      "geometry": {
        "type": "Point",
        "coordinates": [121.515137, 25.07516993]
      }
    },
    {
      "type": "Feature",
      "properties": {
        "county": "新北市",
        "town": "三峽區",
        "village": "安坑里",
        "record_date": "2025/05/03",
        "confirmed_count": 1,
        "marker-color": "#FFCC00"
      },
      "geometry": {
        "type": "Point",
        "coordinates": [121.4598625, 24.91161591]
      }
    },
    {
      "type": "Feature",
      "properties": {
        "county": "新北市",
        "town": "汐止區",
        "village": "建成里",
        "record_date": "2025/06/08",
        "confirmed_count": 1,
        "marker-color": "#FFCC00"
      },
      "geometry": {
        "type": "Point",
        "coordinates": [121.6613502, 25.07369353]
      }
    },
    {
      "type": "Feature",
      "properties": {
        "county": "新北市",
        "town": "樹林區",
        "village": "西園里",
        "record_date": "2025/06/16",
        "confirmed_count": 1,
        "marker-color": "#FFCC00"
      },
      "geometry": {
        "type": "Point",
        "coordinates": [121.3674787, 24.95012251]
      }
    },
    {
      "type": "Feature",
      "properties": {
        "county": "新北市",
        "town": "三重區",
        "village": "開元里",
        "record_date": "2025/06/19",
        "confirmed_count": 1,
        "marker-color": "#FFCC00"
      },
      "geometry": {
        "type": "Point",
        "coordinates": [121.5033492, 25.06571796]
      }
    },
    {
      "type": "Feature",
      "properties": {
        "county": "新北市",
        "town": "汐止區",
        "village": "宜興里",
        "record_date": "2025/07/07",
        "confirmed_count": 1,
        "marker-color": "#FFCC00"
      },
      "geometry": {
        "type": "Point",
        "coordinates": [121.6224294, 25.04083135]
      }
    },
    {
      "type": "Feature",
      "properties": {
        "county": "新北市",
        "town": "新莊區",
        "village": "中原里",
        "record_date": "2025/07/11",
        "confirmed_count": 1,
        "marker-color": "#FFCC00"
      },
      "geometry": {
        "type": "Point",
        "coordinates": [121.4489088, 25.05305734]
      }
    },
    {
      "type": "Feature",
      "properties": {
        "county": "新北市",
        "town": "板橋區",
        "village": "大觀里",
        "record_date": "2025/07/11",
        "confirmed_count": 1,
        "marker-color": "#FFCC00"
      },
      "geometry": {
        "type": "Point",
        "coordinates": [121.4456113, 25.01005467]
      }
    },
    {
      "type": "Feature",
      "properties": {
        "county": "新北市",
        "town": "深坑區",
        "village": "賴仲里",
        "record_date": "2025/07/13",
        "confirmed_count": 1,
        "marker-color": "#FFCC00"
      },
      "geometry": {
        "type": "Point",
        "coordinates": [121.6294454, 25.01062804]
      }
    },
    {
      "type": "Feature",
      "properties": {
        "county": "新北市",
        "town": "永和區",
        "village": "雙和里",
        "record_date": "2025/07/16",
        "confirmed_count": 1,
        "marker-color": "#FFCC00"
      },
      "geometry": {
        "type": "Point",
        "coordinates": [121.5088803, 25.00049365]
      }
    },
    {
      "type": "Feature",
      "properties": {
        "county": "新北市",
        "town": "泰山區",
        "village": "同榮里",
        "record_date": "2025/07/23",
        "confirmed_count": 1,
        "marker-color": "#FFCC00"
      },
      "geometry": {
        "type": "Point",
        "coordinates": [121.4286688, 25.05838729]
      }
    },
    {
      "type": "Feature",
      "properties": {
        "county": "新北市",
        "town": "三重區",
        "village": "中興里",
        "record_date": "2025/07/31",
        "confirmed_count": 1,
        "marker-color": "#FFCC00"
      },
      "geometry": {
        "type": "Point",
        "coordinates": [121.4692619, 25.04385755]
      }
    },
    {
      "type": "Feature",
      "properties": {
        "county": "新北市",
        "town": "板橋區",
        "village": "崑崙里",
        "record_date": "2025/08/07",
        "confirmed_count": 1,
        "marker-color": "#FFCC00"
      },
      "geometry": {
        "type": "Point",
        "coordinates": [121.4309002, 24.99223326]
      }
    },
    {
      "type": "Feature",
      "properties": {
        "county": "新北市",
        "town": "深坑區",
        "village": "土庫里",
        "record_date": "2025/08/09",
        "confirmed_count": 1,
        "marker-color": "#FFCC00"
      },
      "geometry": {
        "type": "Point",
        "coordinates": [121.6378425, 25.01297319]
      }
    },
    {
      "type": "Feature",
      "properties": {
        "county": "新北市",
        "town": "深坑區",
        "village": "土庫里",
        "record_date": "2025/08/10",
        "confirmed_count": 1,
        "marker-color": "#FFCC00"
      },
      "geometry": {
        "type": "Point",
        "coordinates": [121.6378425, 25.01297319]
      }
    },
    {
      "type": "Feature",
      "properties": {
        "county": "新北市",
        "town": "板橋區",
        "village": "居仁里",
        "record_date": "2025/08/11",
        "confirmed_count": 1,
        "marker-color": "#FFCC00"
      },
      "geometry": {
        "type": "Point",
        "coordinates": [121.4817625, 25.01431705]
      }
    },
    {
      "type": "Feature",
      "properties": {
        "county": "新北市",
        "town": "三重區",
        "village": "龍門里",
        "record_date": "2025/08/18",
        "confirmed_count": 1,
        "marker-color": "#FFCC00"
      },
      "geometry": {
        "type": "Point",
        "coordinates": [121.4974155, 25.07224788]
      }
    },
    {
      "type": "Feature",
      "properties": {
        "county": "新北市",
        "town": "三重區",
        "village": "錦田里",
        "record_date": "2025/08/27",
        "confirmed_count": 1,
        "marker-color": "#FFCC00"
      },
      "geometry": {
        "type": "Point",
        "coordinates": [121.487519, 25.06282187]
      }
    },
    {
      "type": "Feature",
      "properties": {
        "county": "新北市",
        "town": "深坑區",
        "village": "萬順里",
        "record_date": "2025/08/30",
        "confirmed_count": 1,
        "marker-color": "#FFCC00"
      },
      "geometry": {
        "type": "Point",
        "coordinates": [121.5983093, 25.00420486]
      }
    },
    {
      "type": "Feature",
      "properties": {
        "county": "新北市",
        "town": "永和區",
        "village": "新生里",
        "record_date": "2025/09/01",
        "confirmed_count": 1,
        "marker-color": "#FFCC00"
      },
      "geometry": {
        "type": "Point",
        "coordinates": [121.5060504, 25.01409653]
      }
    },
    {
      "type": "Feature",
      "properties": {
        "county": "新北市",
        "town": "三重區",
        "village": "重明里",
        "record_date": "2025/09/08",
        "confirmed_count": 1,
        "marker-color": "#FFCC00"
      },
      "geometry": {
        "type": "Point",
        "coordinates": [121.484386, 25.05750102]
      }
    },
    {
      "type": "Feature",
      "properties": {
        "county": "新北市",
        "town": "樹林區",
        "village": "南園里",
        "record_date": "2025/09/12",
        "confirmed_count": 1,
        "marker-color": "#FFCC00"
      },
      "geometry": {
        "type": "Point",
        "coordinates": [121.3831054, 24.94551375]
      }
    },
    {
      "type": "Feature",
      "properties": {
        "county": "新北市",
        "town": "土城區",
        "village": "廣興里",
        "record_date": "2025/09/22",
        "confirmed_count": 1,
        "marker-color": "#FFCC00"
      },
      "geometry": {
        "type": "Point",
        "coordinates": [121.456385, 24.98868043]
      }
    },
    {
      "type": "Feature",
      "properties": {
        "county": "新北市",
        "town": "永和區",
        "village": "永福里",
        "record_date": "2025/09/26",
        "confirmed_count": 1,
        "marker-color": "#FFCC00"
      },
      "geometry": {
        "type": "Point",
        "coordinates": [121.5225256, 25.00748455]
      }
    },
    {
      "type": "Feature",
      "properties": {
        "county": "新北市",
        "town": "淡水區",
        "village": "崁頂里",
        "record_date": "2025/10/16",
        "confirmed_count": 1,
        "marker-color": "#FFCC00"
      },
      "geometry": {
        "type": "Point",
        "coordinates": [121.4395331, 25.19120396]
      }
    },
    {
      "type": "Feature",
      "properties": {
        "county": "新北市",
        "town": "五股區",
        "village": "成泰里",
        "record_date": "2025/10/17",
        "confirmed_count": 1,
        "marker-color": "#FFCC00"
      },
      "geometry": {
        "type": "Point",
        "coordinates": [121.4469627, 25.09202766]
      }
    },
    {
      "type": "Feature",
      "properties": {
        "county": "新北市",
        "town": "汐止區",
        "village": "白雲里",
        "record_date": "2025/10/29",
        "confirmed_count": 1,
        "marker-color": "#FFCC00"
      },
      "geometry": {
        "type": "Point",
        "coordinates": [121.6550086, 25.05669654]
      }
    },
    {
      "type": "Feature",
      "properties": {
        "county": "新北市",
        "town": "蘆洲區",
        "village": "溪墘里",
        "record_date": "2025/10/29",
        "confirmed_count": 1,
        "marker-color": "#FFCC00"
      },
      "geometry": {
        "type": "Point",
        "coordinates": [121.4749911, 25.08164207]
      }
    },
    {
      "type": "Feature",
      "properties": {
        "county": "新北市",
        "town": "中和區",
        "village": "文元里",
        "record_date": "2025/11/02",
        "confirmed_count": 1,
        "marker-color": "#FFCC00"
      },
      "geometry": {
        "type": "Point",
        "coordinates": [121.48185, 24.99667296]
      }
    },
    {
      "type": "Feature",
      "properties": {
        "county": "新北市",
        "town": "汐止區",
        "village": "忠孝里",
        "record_date": "2025/11/08",
        "confirmed_count": 1,
        "marker-color": "#FFCC00"
      },
      "geometry": {
        "type": "Point",
        "coordinates": [121.6381562, 25.06405962]
      }
    },
    {
      "type": "Feature",
      "properties": {
        "county": "新北市",
        "town": "中和區",
        "village": "平河里",
        "record_date": "2025/11/22",
        "confirmed_count": 1,
        "marker-color": "#FFCC00"
      },
      "geometry": {
        "type": "Point",
        "coordinates": [121.4848491, 24.99998677]
      }
    },
    {
      "type": "Feature",
      "properties": {
        "county": "新北市",
        "town": "新店區",
        "village": "員潭里",
        "record_date": "2025/12/16",
        "confirmed_count": 1,
        "marker-color": "#FFCC00"
      },
      "geometry": {
        "type": "Point",
        "coordinates": [121.5638055, 24.95929208]
      }
    },
    {
      "type": "Feature",
      "properties": {
        "county": "新北市",
        "town": "新店區",
        "village": "員潭里",
        "record_date": "2025/12/17",
        "confirmed_count": 1,
        "marker-color": "#FFCC00"
      },
      "geometry": {
        "type": "Point",
        "coordinates": [121.5638055, 24.95929208]
      }
    },
    {
      "type": "Feature",
      "properties": {
        "county": "新北市",
        "town": "林口區",
        "village": "湖南里",
        "record_date": "2025/12/26",
        "confirmed_count": 1,
        "marker-color": "#FFCC00"
      },
      "geometry": {
        "type": "Point",
        "coordinates": [121.3750171, 25.07815073]
      }
    },
    {
      "type": "Feature",
      "properties": {
        "county": "新北市",
        "town": "深坑區",
        "village": "萬福里",
        "record_date": "2025/12/29",
        "confirmed_count": 1,
        "marker-color": "#FFCC00"
      },
      "geometry": {
        "type": "Point",
        "coordinates": [121.6006776, 25.00414825]
      }
    },
    {
      "type": "Feature",
      "properties": {
        "county": "新北市",
        "town": "深坑區",
        "village": "土庫里",
        "record_date": "2026/01/06",
        "confirmed_count": 1,
        "marker-color": "#FFCC00"
      },
      "geometry": {
        "type": "Point",
        "coordinates": [121.6378088, 25.00970909]
      }
    },
    {
      "type": "Feature",
      "properties": {
        "county": "新北市",
        "town": "林口區",
        "village": "南勢里",
        "record_date": "2026/02/01",
        "confirmed_count": 1,
        "marker-color": "#FFCC00"
      },
      "geometry": {
        "type": "Point",
        "coordinates": [121.3712485, 25.07530625]
      }
    },
    {
      "type": "Feature",
      "properties": {
        "county": "新北市",
        "town": "板橋區",
        "village": "港德里",
        "record_date": "2026/02/13",
        "confirmed_count": 1,
        "marker-color": "#FFCC00"
      },
      "geometry": {
        "type": "Point",
        "coordinates": [121.4563456, 25.01878416]
      }
    },
    {
      "type": "Feature",
      "properties": {
        "county": "新北市",
        "town": "永和區",
        "village": "信義里",
        "record_date": "2026/03/04",
        "confirmed_count": 1,
        "marker-color": "#FFCC00"
      },
      "geometry": {
        "type": "Point",
        "coordinates": [121.5125351, 25.01154305]
      }
    },
    {
      "type": "Feature",
      "properties": {
        "county": "新北市",
        "town": "三峽區",
        "village": "中正里",
        "record_date": "2026/04/08",
        "confirmed_count": 1,
        "marker-color": "#FFCC00"
      },
      "geometry": {
        "type": "Point",
        "coordinates": [121.3729332, 24.92801516]
      }
    },
    {
      "type": "Feature",
      "properties": {
        "county": "新北市",
        "town": "新店區",
        "village": "新安里",
        "record_date": "2026/04/17",
        "confirmed_count": 1,
        "marker-color": "#FFCC00"
      },
      "geometry": {
        "type": "Point",
        "coordinates": [121.5433396, 24.97566197]
      }
    },
    {
      "type": "Feature",
      "properties": {
        "county": "新北市",
        "town": "樹林區",
        "village": "樹人里",
        "record_date": "2026/04/19",
        "confirmed_count": 1,
        "marker-color": "#FFCC00"
      },
      "geometry": {
        "type": "Point",
        "coordinates": [121.4172246, 24.98754898]
      }
    }
  ]
}