{"type": "FeatureCollection", "features": [{"type": "Feature", "properties": {"facility_name": "國立台灣大學醫學院附設醫院", "address": "臺北市中正區中山南路７號", "phone": "(02)23123456", "city": "臺北市", "district": "中正區"}, "geometry": {"type": "Point", "coordinates": [121.520694, 25.04057]}}, {"type": "Feature", "properties": {"facility_name": "臺北市立聯合醫院（和平婦幼院區）", "address": "臺北市中正區中華路二段３３號", "phone": "(02)23889595", "city": "臺北市", "district": "中正區"}, "geometry": {"type": "Point", "coordinates": [121.507202, 25.035337]}}, {"type": "Feature", "properties": {"facility_name": "西園醫院", "address": "臺北市萬華區西園路二段２７６號", "phone": "(02)23076968", "city": "臺北市", "district": "萬華區"}, "geometry": {"type": "Point", "coordinates": [121.494435, 25.027726]}}, {"type": "Feature", "properties": {"facility_name": "臺北市立聯合醫院（中興院區）", "address": "臺北市大同區鄭州路１４５號", "phone": "(02)25523234", "city": "臺北市", "district": "大同區"}, "geometry": {"type": "Point", "coordinates": [121.509269, 25.051379]}}, {"type": "Feature", "properties": {"facility_name": "振興醫療財團法人振興醫院", "address": "臺北市北投區振興街４５號", "phone": "(02)28264400", "city": "臺北市", "district": "北投區"}, "geometry": {"type": "Point", "coordinates": [121.52237, 25.116152]}}, {"type": "Feature", "properties": {"facility_name": "臺北榮民總醫院", "address": "臺北市北投區石牌路二段２０１號", "phone": "(02)28712121", "city": "臺北市", "district": "北投區"}, "geometry": {"type": "Point", "coordinates": [121.520159, 25.122149]}}, {"type": "Feature", "properties": {"facility_name": "博仁綜合醫院", "address": "臺北市松山區光復北路６６號", "phone": "(02)25786677", "city": "臺北市", "district": "松山區"}, "geometry": {"type": "Point", "coordinates": [121.55756, 25.04997]}}, {"type": "Feature", "properties": {"facility_name": "三軍總醫院松山分院附設民眾診療服務處", "address": "臺北市松山區健康路１３１號", "phone": "(02)27642151", "city": "臺北市", "district": "松山區"}, "geometry": {"type": "Point", "coordinates": [121.558218, 25.055091]}}, {"type": "Feature", "properties": {"facility_name": "基督復臨安息日會醫療財團法人臺安醫院", "address": "臺北市松山區八德路二段４２４號", "phone": "(02)27718151", "city": "臺北市", "district": "松山區"}, "geometry": {"type": "Point", "coordinates": [121.547483, 25.047683]}}, {"type": "Feature", "properties": {"facility_name": "臺北醫學大學附設醫院", "address": "臺北市信義區吳興街２５２號", "phone": "(02)27372181", "city": "臺北市", "district": "信義區"}, "geometry": {"type": "Point", "coordinates": [121.563012, 25.026956]}}, {"type": "Feature", "properties": {"facility_name": "財團法人臺灣基督長老教會馬偕紀念社會事業基金會馬偕紀念醫院", "address": "臺北市中山區中山北路二段９２號", "phone": "(02)25433535", "city": "臺北市", "district": "中山區"}, "geometry": {"type": "Point", "coordinates": [121.52237, 25.058463]}}, {"type": "Feature", "properties": {"facility_name": "臺北市立萬芳醫院", "address": "臺北市文山區興隆路三段１１１號", "phone": "(02)29307930", "city": "臺北市", "district": "文山區"}, "geometry": {"type": "Point", "coordinates": [121.558497, 25.00048]}}, {"type": "Feature", "properties": {"facility_name": "臺北市立聯合醫院（忠孝院區）", "address": "臺北市南港區同德路８７號", "phone": "(02)27861288", "city": "臺北市", "district": "南港區"}, "geometry": {"type": "Point", "coordinates": [121.586142, 25.0466]}}, {"type": "Feature", "properties": {"facility_name": "臺北市立聯合醫院（仁愛院區）", "address": "臺北市大安區仁愛路四段１０號", "phone": "(02)27093600", "city": "臺北市", "district": "大安區"}, "geometry": {"type": "Point", "coordinates": [121.545385, 25.037298]}}, {"type": "Feature", "properties": {"facility_name": "國泰醫療財團法人國泰綜合醫院", "address": "臺北市大安區仁愛路四段２６６巷６號", "phone": "(02)27082121", "city": "臺北市", "district": "大安區"}, "geometry": {"type": "Point", "coordinates": [121.552744, 25.037182]}}, {"type": "Feature", "properties": {"facility_name": "新光醫療財團法人新光吳火獅紀念醫院", "address": "臺北市士林區文昌路９５號", "phone": "(02)28332211", "city": "臺北市", "district": "士林區"}, "geometry": {"type": "Point", "coordinates": [121.520229, 25.096102]}}, {"type": "Feature", "properties": {"facility_name": "臺北市立聯合醫院（陽明院區）", "address": "臺北市士林區雨聲街１０５號", "phone": "(02)28353456", "city": "臺北市", "district": "士林區"}, "geometry": {"type": "Point", "coordinates": [121.531891, 25.105137]}}, {"type": "Feature", "properties": {"facility_name": "三軍總醫院附設民眾診療服務處", "address": "臺北市內湖區成功路二段３２５號", "phone": "(02)87923311", "city": "臺北市", "district": "內湖區"}, "geometry": {"type": "Point", "coordinates": [121.594651, 25.071737]}}, {"type": "Feature", "properties": {"facility_name": "醫療財團法人徐元智先生醫藥基金會亞東紀念醫院", "address": "新北市板橋區南雅南路2段21號", "phone": "(02)89667000", "city": "新北市", "district": "板橋區"}, "geometry": {"type": "Point", "coordinates": [121.453295, 24.997236]}}, {"type": "Feature", "properties": {"facility_name": "台灣基督長老教會馬偕醫療財團法人淡水馬偕紀念醫院", "address": "新北市淡水區民生路45號", "phone": "(02)28094661", "city": "新北市", "district": "淡水區"}, "geometry": {"type": "Point", "coordinates": [121.461508, 25.139274]}}, {"type": "Feature", "properties": {"facility_name": "衛生福利部雙和醫院（委託臺北醫學大學興建經營）", "address": "新北市中和區中正路291號", "phone": "(02)22490088", "city": "新北市", "district": "中和區"}, "geometry": {"type": "Point", "coordinates": [121.493592, 24.992487]}}, {"type": "Feature", "properties": {"facility_name": "佛教慈濟醫療財團法人台北慈濟醫院", "address": "新北市新店區建國路289號", "phone": "(02)66289779", "city": "新北市", "district": "新店區"}, "geometry": {"type": "Point", "coordinates": [121.535234, 24.986054]}}, {"type": "Feature", "properties": {"facility_name": "天主教耕莘醫療財團法人耕莘醫院", "address": "新北市新店區中正路362號", "phone": "(02)22193391", "city": "新北市", "district": "新店區"}, "geometry": {"type": "Point", "coordinates": [121.536021, 24.976589]}}, {"type": "Feature", "properties": {"facility_name": "輔仁大學學校財團法人輔仁大學附設醫院", "address": "新北市泰山區貴子路69號", "phone": "(02)85128888", "city": "新北市", "district": "泰山區"}, "geometry": {"type": "Point", "coordinates": [121.431344, 25.040166]}}, {"type": "Feature", "properties": {"facility_name": "新北市立土城醫院（委託長庚醫療財團法人興建經營）", "address": "新北市土城區金城路2段6號", "phone": "(02)22630588", "city": "新北市", "district": "土城區"}, "geometry": {"type": "Point", "coordinates": [121.448975, 24.976037]}}, {"type": "Feature", "properties": {"facility_name": "衛生福利部臺北醫院", "address": "新北市新莊區思源路127號", "phone": "(02)22765566", "city": "新北市", "district": "新莊區"}, "geometry": {"type": "Point", "coordinates": [121.459147, 25.042768]}}, {"type": "Feature", "properties": {"facility_name": "行天宮醫療志業醫療財團法人恩主公醫院", "address": "新北市三峽區復興路399號", "phone": "(02)26723456", "city": "新北市", "district": "三峽區"}, "geometry": {"type": "Point", "coordinates": [121.363069, 24.938366]}}, {"type": "Feature", "properties": {"facility_name": "國泰醫療財團法人汐止國泰綜合醫院", "address": "新北市汐止區建成路59巷2號", "phone": "(02)26482121", "city": "新北市", "district": "汐止區"}, "geometry": {"type": "Point", "coordinates": [121.660928, 25.072985]}}, {"type": "Feature", "properties": {"facility_name": "新北市立聯合醫院（三重院區）", "address": "新北市三重區新北大道一段3號", "phone": "(02)29829111", "city": "新北市", "district": "三重區"}, "geometry": {"type": "Point", "coordinates": [121.490203, 25.06093]}}, {"type": "Feature", "properties": {"facility_name": "天主教耕莘醫療財團法人永和耕莘醫院", "address": "新北市永和區中興街80號", "phone": "(02)29286060", "city": "新北市", "district": "永和區"}, "geometry": {"type": "Point", "coordinates": [121.517918, 25.011828]}}, {"type": "Feature", "properties": {"facility_name": "天主教耕莘醫療財團法人耕莘醫院安康院區", "address": "新北市新店區車子路15號", "phone": "(02)22123066", "city": "新北市", "district": "新店區"}, "geometry": {"type": "Point", "coordinates": [121.50399, 24.953841]}}, {"type": "Feature", "properties": {"facility_name": "國立臺灣大學醫學院附設醫院金山分院", "address": "新北市金山區五湖里玉爐路7號", "phone": "(02)24989898", "city": "新北市", "district": "金山區"}, "geometry": {"type": "Point", "coordinates": [121.628399, 25.219553]}}, {"type": "Feature", "properties": {"facility_name": "衛生福利部樂生醫院", "address": "新北市新莊區中正路794號", "phone": "(02)82006600", "city": "新北市", "district": "新莊區"}, "geometry": {"type": "Point", "coordinates": [121.408947, 25.022496]}}, {"type": "Feature", "properties": {"facility_name": "瑞芳礦工醫院", "address": "新北市瑞芳區一坑路71之2號", "phone": "(02)24974101", "city": "新北市", "district": "瑞芳區"}, "geometry": {"type": "Point", "coordinates": [121.802163, 25.108601]}}, {"type": "Feature", "properties": {"facility_name": "仁愛醫院", "address": "新北市樹林區文化街9號", "phone": "(02)26834567", "city": "新北市", "district": "樹林區"}, "geometry": {"type": "Point", "coordinates": [121.419993, 24.987196]}}, {"type": "Feature", "properties": {"facility_name": "新泰綜合醫院", "address": "新北市新莊區新樹路176號", "phone": "(02)29962121", "city": "新北市", "district": "新莊區"}, "geometry": {"type": "Point", "coordinates": [121.434137, 25.021559]}}, {"type": "Feature", "properties": {"facility_name": "宏仁醫院", "address": "新北市三重區水漾路一段158號", "phone": "(02)29788877", "city": "新北市", "district": "三重區"}, "geometry": {"type": "Point", "coordinates": [121.483784, 25.053998]}}]}