{"type": "FeatureCollection", "features": [{"type": "Feature", "properties": {"hosp_name": "聯合報系員工診療所", "hosp_address": "臺北市信義區忠孝東路四段５５９巷１號６樓", "hosp_tel": "227601618", "city": "臺北市", "district": "信義區"}, "geometry": {"type": "Point", "coordinates": [121.5609874, 25.0419736]}}, {"type": "Feature", "properties": {"hosp_name": "黃啟彰診所", "hosp_address": "臺北市信義區松山路２６１－１號１樓", "hosp_tel": "227696218", "city": "臺北市", "district": "信義區"}, "geometry": {"type": "Point", "coordinates": [121.575443, 25.043801]}}, {"type": "Feature", "properties": {"hosp_name": "林應然小兒科診所", "hosp_address": "臺北市信義區福德街７５號", "hosp_tel": "227595328", "city": "臺北市", "district": "信義區"}, "geometry": {"type": "Point", "coordinates": [121.578557, 25.036847]}}, {"type": "Feature", "properties": {"hosp_name": "看見佳醫診所", "hosp_address": "臺北市大安區忠孝東路３段３０５號５樓之３", "hosp_tel": "287731601", "city": "臺北市", "district": "大安區"}, "geometry": {"type": "Point", "coordinates": [121.5409429, 25.0418858]}}, {"type": "Feature", "properties": {"hosp_name": "何叔芳小兒科診所", "hosp_address": "臺北市北投區石牌路２段９０巷１２號１樓", "hosp_tel": "228206886", "city": "臺北市", "district": "北投區"}, "geometry": {"type": "Point", "coordinates": [121.514319, 25.1170183]}}, {"type": "Feature", "properties": {"hosp_name": "佛教慈濟醫療財團法人台北慈濟醫院", "hosp_address": "新北市新店區建國路２８９號", "hosp_tel": "266289779", "city": "臺北市", "district": "新店區"}, "geometry": {"type": "Point", "coordinates": [121.5326592, 24.9860544]}}, {"type": "Feature", "properties": {"hosp_name": "禾馨-小禾馨士林小兒專科診所", "hosp_address": "臺北市士林區中正路２８９號（實際使用：１樓）", "hosp_tel": "228827333", "city": "臺北市", "district": "士林區"}, "geometry": {"type": "Point", "coordinates": [121.5213413, 25.0946875]}}, {"type": "Feature", "properties": {"hosp_name": "羅源彰診所", "hosp_address": "台北市大同區長安西路１３７號", "hosp_tel": "225552500", "city": "臺北市", "district": "大同區"}, "geometry": {"type": "Point", "coordinates": [121.5125111, 25.0514479]}}, {"type": "Feature", "properties": {"hosp_name": "劉建宏診所", "hosp_address": "台北市大安路二段１３９號", "hosp_tel": "227002368", "city": "臺北市", "district": ""}, "geometry": {"type": "Point", "coordinates": [121.5435623, 25.0285754]}}, {"type": "Feature", "properties": {"hosp_name": "財團法人國泰綜合醫院", "hosp_address": "台北市大安區仁愛路四段２８０號", "hosp_tel": "227082121", "city": "臺北市", "district": "大安區"}, "geometry": {"type": "Point", "coordinates": [121.5358375, 25.028575]}}, {"type": "Feature", "properties": {"hosp_name": "松德診所", "hosp_address": "臺北市大安區四維路170巷16號", "hosp_tel": "227073366", "city": "臺北市", "district": "大安區"}, "geometry": {"type": "Point", "coordinates": [121.544775, 25.0281223]}}, {"type": "Feature", "properties": {"hosp_name": "宏恩醫療財團法人宏恩綜合醫院", "hosp_address": "台北市大安區仁愛路４段７１巷１號", "hosp_tel": "221713161", "city": "臺北市", "district": "大安區"}, "geometry": {"type": "Point", "coordinates": [121.5441066, 25.0382016]}}, {"type": "Feature", "properties": {"hosp_name": "安東診所", "hosp_address": "臺北市大安區和平東路２段２２９號（１樓、２樓）", "hosp_tel": "227088995", "city": "臺北市", "district": "大安區"}, "geometry": {"type": "Point", "coordinates": [121.5382954, 25.0252091]}}, {"type": "Feature", "properties": {"hosp_name": "全家聯合診所", "hosp_address": "台北市和平東路２段３５３號", "hosp_tel": "227067575", "city": "臺北市", "district": ""}, "geometry": {"type": "Point", "coordinates": [121.5436645, 25.0249095]}}, {"type": "Feature", "properties": {"hosp_name": "禾馨-小禾馨小兒專科診所", "hosp_address": "臺北市大安區新生南路三段4號", "hosp_tel": "223698833", "city": "臺北市", "district": "大安區"}, "geometry": {"type": "Point", "coordinates": [121.5165228, 25.0255651]}}, {"type": "Feature", "properties": {"hosp_name": "中山醫療社團法人中山醫院", "hosp_address": "台北市仁愛路四段１１２巷１１號", "hosp_tel": "227081166", "city": "臺北市", "district": ""}, "geometry": {"type": "Point", "coordinates": [121.5473814, 25.0365242]}}, {"type": "Feature", "properties": {"hosp_name": "龍江小兒科診所", "hosp_address": "台北市龍江路331巷3號", "hosp_tel": "225152433", "city": "臺北市", "district": ""}, "geometry": {"type": "Point", "coordinates": [121.5381784, 25.0552012]}}, {"type": "Feature", "properties": {"hosp_name": "綠葉親子診所", "hosp_address": "臺北市中山區農安街１２之１號（１樓）", "hosp_tel": "225935559", "city": "臺北市", "district": "中山區"}, "geometry": {"type": "Point", "coordinates": [121.5211964, 25.0648345]}}, {"type": "Feature", "properties": {"hosp_name": "榮星診所", "hosp_address": "臺北市中山區龍江路２７４號１樓及２８０號１樓、２樓", "hosp_tel": "225168112", "city": "臺北市", "district": "中山區"}, "geometry": {"type": "Point", "coordinates": [121.538078, 25.0609358]}}, {"type": "Feature", "properties": {"hosp_name": "愛鄰診所", "hosp_address": "台北市中山區北安路５２０之１號", "hosp_tel": "225322333", "city": "臺北市", "district": "中山區"}, "geometry": {"type": "Point", "coordinates": [121.5435382, 25.0796826]}}, {"type": "Feature", "properties": {"hosp_name": "黃大倫婦產科診所", "hosp_address": "台北市中山區長安東路２段１３１–３號１．２樓", "hosp_tel": "225006032", "city": "臺北市", "district": "中山區"}, "geometry": {"type": "Point", "coordinates": [121.5335058, 25.0485505]}}, {"type": "Feature", "properties": {"hosp_name": "晴光診所", "hosp_address": "臺北市中山區林森北路556號", "hosp_tel": "225853210", "city": "臺北市", "district": "中山區"}, "geometry": {"type": "Point", "coordinates": [121.5229398, 25.064304]}}, {"type": "Feature", "properties": {"hosp_name": "啟新診所", "hosp_address": "台北市建國北路三段４２號５樓", "hosp_tel": "225070723", "city": "臺北市", "district": ""}, "geometry": {"type": "Point", "coordinates": [21.534021, 25.0643025]}}, {"type": "Feature", "properties": {"hosp_name": "木生婦產科診所", "hosp_address": "台北市中山區長安東路２段９０號１－４樓８８號４樓", "hosp_tel": "225012312", "city": "臺北市", "district": "中山區"}, "geometry": {"type": "Point", "coordinates": [121.5299172, 25.0483087]}}, {"type": "Feature", "properties": {"hosp_name": "大直佳恩診所", "hosp_address": "臺北市中山區北安路５９１號", "hosp_tel": "225323301", "city": "臺北市", "district": "中山區"}, "geometry": {"type": "Point", "coordinates": [121.5460321, 25.081959]}}, {"type": "Feature", "properties": {"hosp_name": "國立臺灣大學醫學院附設醫院", "hosp_address": "台北市常德路1號", "hosp_tel": "223123456", "city": "臺北市", "district": ""}, "geometry": {"type": "Point", "coordinates": [121.5156872, 25.0413784]}}, {"type": "Feature", "properties": {"hosp_name": "健康１０１診所", "hosp_address": "台北市中正區牯嶺街９７號１樓", "hosp_tel": "223645143", "city": "臺北市", "district": "中正區"}, "geometry": {"type": "Point", "coordinates": [121.5164926, 25.0258949]}}, {"type": "Feature", "properties": {"hosp_name": "禾馨-禾馨婦產科診所", "hosp_address": "臺北市中正區懷寧街78號、78號2樓", "hosp_tel": "223612323", "city": "臺北市", "district": "中正區"}, "geometry": {"type": "Point", "coordinates": [121.4984679, 25.0258934]}}, {"type": "Feature", "properties": {"hosp_name": "湖欣診所", "hosp_address": "臺北市內湖區成功路４段３２７號", "hosp_tel": "227918350", "city": "臺北市", "district": "內湖區"}, "geometry": {"type": "Point", "coordinates": [121.5943314, 25.084539]}}, {"type": "Feature", "properties": {"hosp_name": "國泰醫療財團法人內湖國泰診所", "hosp_address": "臺北市內湖區瑞光路504、506號及508號2樓", "hosp_tel": "287935888", "city": "臺北市", "district": "內湖區"}, "geometry": {"type": "Point", "coordinates": [121.5730299, 25.077801]}}, {"type": "Feature", "properties": {"hosp_name": "禾馨-小禾馨民權小兒專科診所", "hosp_address": "臺北市內湖區行忠路191號", "hosp_tel": "227910233", "city": "臺北市", "district": "內湖區"}, "geometry": {"type": "Point", "coordinates": [121.5771468, 25.0674106]}}, {"type": "Feature", "properties": {"hosp_name": "仁弘耳鼻喉科診所", "hosp_address": "臺北市內湖區內湖路一段７３７巷５０弄３３號１樓", "hosp_tel": "226596360", "city": "臺北市", "district": "內湖區"}, "geometry": {"type": "Point", "coordinates": [121.5758515, 25.0806768]}}, {"type": "Feature", "properties": {"hosp_name": "中國醫藥大學附設醫院臺北分院", "hosp_address": "台北市內湖區內湖路２段３６０號", "hosp_tel": "227919696", "city": "臺北市", "district": "內湖區"}, "geometry": {"type": "Point", "coordinates": [121.5881503, 25.0820989]}}, {"type": "Feature", "properties": {"hosp_name": "三軍總醫院附設民眾診療服務處", "hosp_address": "臺北市內湖區成功路二段３２５號", "hosp_tel": "287923311", "city": "臺北市", "district": "內湖區"}, "geometry": {"type": "Point", "coordinates": [121.5804255, 25.0820985]}}, {"type": "Feature", "properties": {"hosp_name": "樂群耳鼻喉科家醫科診所", "hosp_address": "臺北市文山區木新路３段２０２號", "hosp_tel": "222340158", "city": "臺北市", "district": "文山區"}, "geometry": {"type": "Point", "coordinates": [121.5574579, 24.9816663]}}, {"type": "Feature", "properties": {"hosp_name": "臺北市立萬芳醫院-委託臺北醫學大學辦理", "hosp_address": "台北市文山區興隆路三段１１１號", "hosp_tel": "229307930", "city": "臺北市", "district": "文山區"}, "geometry": {"type": "Point", "coordinates": [121.5555695, 24.999925]}}, {"type": "Feature", "properties": {"hosp_name": "洪佑承小兒專科診所", "hosp_address": "臺北市文山區興隆路四段64之2號", "hosp_tel": "229364708", "city": "臺北市", "district": "文山區"}, "geometry": {"type": "Point", "coordinates": [121.5587696, 24.9850378]}}, {"type": "Feature", "properties": {"hosp_name": "佳鴻診所", "hosp_address": "臺北市文山區羅斯福路６段２５６號１樓", "hosp_tel": "229333096", "city": "臺北市", "district": "文山區"}, "geometry": {"type": "Point", "coordinates": [121.5355548, 24.991851]}}, {"type": "Feature", "properties": {"hosp_name": "仁荔健康診所", "hosp_address": "臺北市文山區興隆路一段258號", "hosp_tel": "229339986", "city": "臺北市", "district": "文山區"}, "geometry": {"type": "Point", "coordinates": [121.5423597, 24.9984466]}}, {"type": "Feature", "properties": {"hosp_name": "臺北榮民總醫院", "hosp_address": "臺北市北投區石牌路二段２０１號、３２２號", "hosp_tel": "228712121", "city": "臺北市", "district": "北投區"}, "geometry": {"type": "Point", "coordinates": [121.5175743, 25.1197546]}}, {"type": "Feature", "properties": {"hosp_name": "陳獻明小兒科診所", "hosp_address": "台北市北投區中央南路１段６９號１樓", "hosp_tel": "228928950", "city": "臺北市", "district": "北投區"}, "geometry": {"type": "Point", "coordinates": [121.4987697, 25.1314836]}}, {"type": "Feature", "properties": {"hosp_name": "黃紹基診所", "hosp_address": "新北市林口區民有街156號1樓(含夾層)", "hosp_tel": "226005385", "city": "新北市", "district": "林口區"}, "geometry": {"type": "Point", "coordinates": [121.3699583, 25.0760769]}}, {"type": "Feature", "properties": {"hosp_name": "羊咩咩親子診所", "hosp_address": "新北市林口區仁愛路二段２０６號１樓", "hosp_tel": "226028885", "city": "新北市", "district": "林口區"}, "geometry": {"type": "Point", "coordinates": [121.3760632, 25.074209]}}, {"type": "Feature", "properties": {"hosp_name": "安倍診所", "hosp_address": "新北市新店區中正路１３２號１樓", "hosp_tel": "289119181", "city": "新北市", "district": "新店區"}, "geometry": {"type": "Point", "coordinates": [121.537428, 24.9714189]}}, {"type": "Feature", "properties": {"hosp_name": "衛生福利部臺北醫院", "hosp_address": "新北市新莊區思源路１２７號", "hosp_tel": "222765566", "city": "新北市", "district": "新莊區"}, "geometry": {"type": "Point", "coordinates": [121.4565722, 25.0427682]}}, {"type": "Feature", "properties": {"hosp_name": "湯瑪士親子兒科診所", "hosp_address": "新北市蘆洲區民族路３７７號１－２樓", "hosp_tel": "222885523", "city": "新北市", "district": "蘆洲區"}, "geometry": {"type": "Point", "coordinates": [121.4673411, 25.0904659]}}]}